{
  "links" : {
    "next" : "https://api.nasa.gov/neo/rest/v1/feed?start_date=1999-04-23&end_date=1999-04-23&detailed=true&api_key=t0TVs3DtDT2H8Oy2Zy8m2eVrNsAVKAexjcZXUckd",
    "prev" : "https://api.nasa.gov/neo/rest/v1/feed?start_date=1999-04-21&end_date=1999-04-21&detailed=true&api_key=t0TVs3DtDT2H8Oy2Zy8m2eVrNsAVKAexjcZXUckd",
    "self" : "https://api.nasa.gov/neo/rest/v1/feed?start_date=1999-04-22&end_date=1999-04-22&detailed=true&api_key=t0TVs3DtDT2H8Oy2Zy8m2eVrNsAVKAexjcZXUckd"
  },
  "element_count" : 1,
  "near_earth_objects" : {
    "1999-04-22" : [ {
      "links" : {
        "self" : "https://api.nasa.gov/neo/rest/v1/neo/2196068?api_key=t0TVs3DtDT2H8Oy2Zy8m2eVrNsAVKAexjcZXUckd"
      },
      "neo_reference_id" : "2196068",
      "name" : "196068 (2002 TW55)",
      "nasa_jpl_url" : "http://ssd.jpl.nasa.gov/sbdb.cgi?sstr=2196068",
      "absolute_magnitude_h" : 18.0,
      "estimated_diameter" : {
        "kilometers" : {
          "estimated_diameter_min" : 0.6676594135,
          "estimated_diameter_max" : 1.4929318344
        },
        "meters" : {
          "estimated_diameter_min" : 667.6594134952,
          "estimated_diameter_max" : 1492.931834393
        },
        "miles" : {
          "estimated_diameter_min" : 0.4148641974,
          "estimated_diameter_max" : 0.9276645469
        },
        "feet" : {
          "estimated_diameter_min" : 2190.4837101717,
          "estimated_diameter_max" : 4898.07047955
        }
      },
      "is_potentially_hazardous_asteroid" : true,
      "close_approach_data" : [ {
        "close_approach_date" : "1999-04-22",
        "epoch_date_close_approach" : 924764400000,
        "relative_velocity" : {
          "kilometers_per_second" : "36.4825631283",
          "kilometers_per_hour" : "131337.2272620143",
          "miles_per_hour" : "81607.8454617777"
        },
        "miss_distance" : {
          "astronomical" : "0.0479002057",
          "lunar" : "18.6331806183",
          "kilometers" : "7165769",
          "miles" : "4452602.5"
        },
        "orbiting_body" : "Earth"
      } ],
      "orbital_data" : {
        "orbit_id" : "38",
        "orbit_determination_date" : "2017-04-06 09:25:38",
        "orbit_uncertainty" : "0",
        "minimum_orbit_intersection" : ".026944",
        "jupiter_tisserand_invariant" : "2.943",
        "epoch_osculation" : "2458000.5",
        "eccentricity" : ".6645001383461542",
        "semi_major_axis" : "2.117350615230475",
        "inclination" : "59.37920241149377",
        "ascending_node_longitude" : "33.60572608471034",
        "orbital_period" : "1125.349950145594",
        "perihelion_distance" : ".7103708384825097",
        "perihelion_argument" : "251.1018096379327",
        "aphelion_distance" : "3.52433039197844",
        "perihelion_time" : "2458083.470198828079",
        "mean_anomaly" : "333.4577927743774",
        "mean_motion" : ".3199004895796408",
        "equinox" : "J2000"
      }
    } ]
  }
}